{
  "type": "FeatureCollection",
  "features": [
    {
      "type": "Feature",
      "properties": {
        "norad_id": 30709,
        "name": "FENGYUN 1C DEB",
        "group": "fengyun-1c-debris",
        "lat": 10.907387763764591,
        "lon": -31.285543416585597,
        "alt_km": 861.6004216407564,
        "timestamp": "2025-12-18T08:58:43.689944+00:00",
        "meta_object_name": "FENGYUN 1C DEB",
        "meta_object_id": "1999-025ART",
        "meta_epoch": "2025-12-17T09:12:36.435456",
        "meta_mean_motion": 14.17526718,
        "meta_eccentricity": 0.00821002,
        "meta_inclination": 99.1438,
        "meta_ra_of_asc_node": 329.4743,
        "meta_arg_of_pericenter": 256.9312,
        "meta_mean_anomaly": 102.2688,
        "meta_ephemeris_type": 0,
        "meta_classification_type": "U",
        "meta_norad_cat_id": 30709,
        "meta_element_set_no": 999,
        "meta_rev_at_epoch": 96062,
        "meta_bstar": 0.0020586857,
        "meta_mean_motion_dot": 4.274e-05,
        "meta_mean_motion_ddot": 0,
        "tle_line1": "1 30709U 99025ART 25351.38375504  .00004274  00000+0  20587-2 0  9995",
        "tle_line2": "2 30709  99.1438 329.4743 0082100 256.9312 102.2688 14.17526718960628"
      },
      "geometry": {
        "type": "Point",
        "coordinates": [
          -31.285543416585597,
          10.907387763764591
        ]
      }
    },
    {
      "type": "Feature",
      "properties": {
        "norad_id": 30710,
        "name": "FENGYUN 1C DEB",
        "group": "fengyun-1c-debris",
        "lat": 42.00381266556576,
        "lon": 75.45852692901254,
        "alt_km": 842.6579295363126,
        "timestamp": "2025-12-18T08:58:43.689954+00:00",
        "meta_object_name": "FENGYUN 1C DEB",
        "meta_object_id": "1999-025ARU",
        "meta_epoch": "2025-12-17T10:47:06.831168",
        "meta_mean_motion": 13.94183522,
        "meta_eccentricity": 0.02242119,
        "meta_inclination": 102.7469,
        "meta_ra_of_asc_node": 242.4249,
        "meta_arg_of_pericenter": 72.0614,
        "meta_mean_anomaly": 103.079,
        "meta_ephemeris_type": 0,
        "meta_classification_type": "U",
        "meta_norad_cat_id": 30710,
        "meta_element_set_no": 999,
        "meta_rev_at_epoch": 94854,
        "meta_bstar": 0.0023074784,
        "meta_mean_motion_dot": 3.701e-05,
        "meta_mean_motion_ddot": 0,
        "tle_line1": "1 30710U 99025ARU 25351.44938462  .00003701  00000+0  23075-2 0  9991",
        "tle_line2": "2 30710 102.7469 242.4249 0224211  72.0614 103.0790 13.94183522948549"
      },
      "geometry": {
        "type": "Point",
        "coordinates": [
          75.45852692901254,
          42.00381266556576
        ]
      }
    },
    {
      "type": "Feature",
      "properties": {
        "norad_id": 30714,
        "name": "FENGYUN 1C DEB",
        "group": "fengyun-1c-debris",
        "lat": -55.56273318687998,
        "lon": 53.849048209863234,
        "alt_km": 850.4984807393621,
        "timestamp": "2025-12-18T08:58:43.689964+00:00",
        "meta_object_name": "FENGYUN 1C DEB",
        "meta_object_id": "1999-025ARY",
        "meta_epoch": "2025-12-17T22:07:22.293984",
        "meta_mean_motion": 14.03299041,
        "meta_eccentricity": 0.00666921,
        "meta_inclination": 98.8363,
        "meta_ra_of_asc_node": 40.2972,
        "meta_arg_of_pericenter": 267.9476,
        "meta_mean_anomaly": 271.2275,
        "meta_ephemeris_type": 0,
        "meta_classification_type": "U",
        "meta_norad_cat_id": 30714,
        "meta_element_set_no": 999,
        "meta_rev_at_epoch": 96065,
        "meta_bstar": 0.00035489538,
        "meta_mean_motion_dot": 5.21e-06,
        "meta_mean_motion_ddot": 0,
        "tle_line1": "1 30714U 99025ARY 25351.92178581  .00000521  00000+0  35490-3 0  9998",
        "tle_line2": "2 30714  98.8363  40.2972 0066692 267.9476 271.2275 14.03299041960653"
      },
      "geometry": {
        "type": "Point",
        "coordinates": [
          53.849048209863234,
          -55.56273318687998
        ]
      }
    },
    {
      "type": "Feature",
      "properties": {
        "norad_id": 30715,
        "name": "FENGYUN 1C DEB",
        "group": "fengyun-1c-debris",
        "lat": 36.56153600375455,
        "lon": 54.83519115773397,
        "alt_km": 861.2819244782631,
        "timestamp": "2025-12-18T08:58:43.689974+00:00",
        "meta_object_name": "FENGYUN 1C DEB",
        "meta_object_id": "1999-025ARZ",
        "meta_epoch": "2025-12-17T17:31:33.307104",
        "meta_mean_motion": 14.14728737,
        "meta_eccentricity": 0.00676915,
        "meta_inclination": 98.977,
        "meta_ra_of_asc_node": 60.9202,
        "meta_arg_of_pericenter": 154.3966,
        "meta_mean_anomaly": 206.0584,
        "meta_ephemeris_type": 0,
        "meta_classification_type": "U",
        "meta_norad_cat_id": 30715,
        "meta_element_set_no": 999,
        "meta_rev_at_epoch": 96252,
        "meta_bstar": 0.001374679,
        "meta_mean_motion_dot": 2.662e-05,
        "meta_mean_motion_ddot": 0,
        "tle_line1": "1 30715U 99025ARZ 25351.73024661  .00002662  00000+0  13747-2 0  9995",
        "tle_line2": "2 30715  98.9770  60.9202 0067691 154.3966 206.0584 14.14728737962523"
      },
      "geometry": {
        "type": "Point",
        "coordinates": [
          54.83519115773397,
          36.56153600375455
        ]
      }
    },
    {
      "type": "Feature",
      "properties": {
        "norad_id": 30716,
        "name": "FENGYUN 1C DEB",
        "group": "fengyun-1c-debris",
        "lat": 79.37634478740277,
        "lon": 119.64144815427831,
        "alt_km": 609.4460901086222,
        "timestamp": "2025-12-18T08:58:43.689984+00:00",
        "meta_object_name": "FENGYUN 1C DEB",
        "meta_object_id": "1999-025ASA",
        "meta_epoch": "2025-12-17T11:44:54.291264",
        "meta_mean_motion": 14.79626187,
        "meta_eccentricity": 0.00205574,
        "meta_inclination": 98.8715,
        "meta_ra_of_asc_node": 175.0427,
        "meta_arg_of_pericenter": 66.9965,
        "meta_mean_anomaly": 347.8507,
        "meta_ephemeris_type": 0,
        "meta_classification_type": "U",
        "meta_norad_cat_id": 30716,
        "meta_element_set_no": 999,
        "meta_rev_at_epoch": 97894,
        "meta_bstar": 0.0028270278,
        "meta_mean_motion_dot": 0.00021271,
        "meta_mean_motion_ddot": 0,
        "tle_line1": "1 30716U 99025ASA 25351.48951726  .00021271  00000+0  28270-2 0  9993",
        "tle_line2": "2 30716  98.8715 175.0427 0020557  66.9965 347.8507 14.79626187978945"
      },
      "geometry": {
        "type": "Point",
        "coordinates": [
          119.64144815427831,
          79.37634478740277
        ]
      }
    },
    {
      "type": "Feature",
      "properties": {
        "norad_id": 30717,
        "name": "FENGYUN 1C DEB",
        "group": "fengyun-1c-debris",
        "lat": 12.893963517136546,
        "lon": -114.67729281331454,
        "alt_km": 815.0978230841683,
        "timestamp": "2025-12-18T08:58:43.689994+00:00",
        "meta_object_name": "FENGYUN 1C DEB",
        "meta_object_id": "1999-025ASB",
        "meta_epoch": "2025-12-17T03:27:15.094080",
        "meta_mean_motion": 14.20566869,
        "meta_eccentricity": 0.00484854,
        "meta_inclination": 99.0175,
        "meta_ra_of_asc_node": 61.9852,
        "meta_arg_of_pericenter": 244.9903,
        "meta_mean_anomaly": 114.6234,
        "meta_ephemeris_type": 0,
        "meta_classification_type": "U",
        "meta_norad_cat_id": 30717,
        "meta_element_set_no": 999,
        "meta_rev_at_epoch": 96599,
        "meta_bstar": 0.0011023797,
        "meta_mean_motion_dot": 2.352e-05,
        "meta_mean_motion_ddot": 0,
        "tle_line1": "1 30717U 99025ASB 25351.14392470  .00002352  00000+0  11024-2 0  9990",
        "tle_line2": "2 30717  99.0175  61.9852 0048485 244.9903 114.6234 14.20566869965998"
      },
      "geometry": {
        "type": "Point",
        "coordinates": [
          -114.67729281331454,
          12.893963517136546
        ]
      }
    },
    {
      "type": "Feature",
      "properties": {
        "norad_id": 30718,
        "name": "FENGYUN 1C DEB",
        "group": "fengyun-1c-debris",
        "lat": -44.60394616360994,
        "lon": 81.72227222924053,
        "alt_km": 858.2499813589338,
        "timestamp": "2025-12-18T08:58:43.690004+00:00",
        "meta_object_name": "FENGYUN 1C DEB",
        "meta_object_id": "1999-025ASC",
        "meta_epoch": "2025-12-17T16:20:03.899616",
        "meta_mean_motion": 14.24385221,
        "meta_eccentricity": 0.00573778,
        "meta_inclination": 98.8909,
        "meta_ra_of_asc_node": 72.1396,
        "meta_arg_of_pericenter": 142.5754,
        "meta_mean_anomaly": 217.9442,
        "meta_ephemeris_type": 0,
        "meta_classification_type": "U",
        "meta_norad_cat_id": 30718,
        "meta_element_set_no": 999,
        "meta_rev_at_epoch": 96844,
        "meta_bstar": 0.0012216109,
        "meta_mean_motion_dot": 2.83e-05,
        "meta_mean_motion_ddot": 0,
        "tle_line1": "1 30718U 99025ASC 25351.68060069  .00002830  00000+0  12216-2 0  9991",
        "tle_line2": "2 30718  98.8909  72.1396 0057377 142.5754 217.9442 14.24385221968441"
      },
      "geometry": {
        "type": "Point",
        "coordinates": [
          81.72227222924053,
          -44.60394616360994
        ]
      }
    }
  ]
}